{
  "type": "FeatureCollection",
  "features": [
    {
      "type": "Feature",
      "properties": {
        "norad_id": 66614,
        "name": "STARLINK-36040",
        "group": "last-30-days",
        "lat": 4.629844603960333,
        "lon": 32.058843711708114,
        "alt_km": 387.14114824442186,
        "timestamp": "2025-12-08T13:49:30.577701+00:00",
        "meta_object_name": "STARLINK-36040",
        "meta_object_id": "2025-270AC",
        "meta_epoch": "2025-12-08T06:00:02.999808",
        "meta_mean_motion": 15.61398099,
        "meta_eccentricity": 0.00013335,
        "meta_inclination": 42.9991,
        "meta_ra_of_asc_node": 218.9811,
        "meta_arg_of_pericenter": 274.9115,
        "meta_mean_anomaly": 224.326,
        "meta_ephemeris_type": 0,
        "meta_classification_type": "U",
        "meta_norad_cat_id": 66614,
        "meta_element_set_no": 999,
        "meta_rev_at_epoch": 352,
        "meta_bstar": -0.025915296,
        "meta_mean_motion_dot": -0.01995956,
        "meta_mean_motion_ddot": 0,
        "tle_line1": "1 66614U 25270AC  25342.25003472 -.01995956  00000+0 -25915-1 0  9996",
        "tle_line2": "2 66614  42.9991 218.9811 0001333 274.9115 224.3260 15.61398099  3528"
      },
      "geometry": {
        "type": "Point",
        "coordinates": [
          32.058843711708114,
          4.629844603960333
        ]
      }
    },
    {
      "type": "Feature",
      "properties": {
        "norad_id": 66615,
        "name": "STARLINK-35988",
        "group": "last-30-days",
        "lat": 5.930681760757175,
        "lon": 30.64869313355251,
        "alt_km": 386.9985699606823,
        "timestamp": "2025-12-08T13:49:30.577711+00:00",
        "meta_object_name": "STARLINK-35988",
        "meta_object_id": "2025-270AD",
        "meta_epoch": "2025-12-08T06:00:02.999808",
        "meta_mean_motion": 15.61396311,
        "meta_eccentricity": 0.00013723,
        "meta_inclination": 42.999,
        "meta_ra_of_asc_node": 218.986,
        "meta_arg_of_pericenter": 274.5655,
        "meta_mean_anomaly": 222.7572,
        "meta_ephemeris_type": 0,
        "meta_classification_type": "U",
        "meta_norad_cat_id": 66615,
        "meta_element_set_no": 999,
        "meta_rev_at_epoch": 352,
        "meta_bstar": -0.025912552,
        "meta_mean_motion_dot": -0.01995677,
        "meta_mean_motion_ddot": 0,
        "tle_line1": "1 66615U 25270AD  25342.25003472 -.01995677  00000+0 -25913-1 0  9995",
        "tle_line2": "2 66615  42.9990 218.9860 0001372 274.5655 222.7572 15.61396311  3523"
      },
      "geometry": {
        "type": "Point",
        "coordinates": [
          30.64869313355251,
          5.930681760757175
        ]
      }
    },
    {
      "type": "Feature",
      "properties": {
        "norad_id": 66616,
        "name": "STARLINK-35391",
        "group": "last-30-days",
        "lat": 3.325373611932271,
        "lon": 33.465076870845365,
        "alt_km": 387.2778950592856,
        "timestamp": "2025-12-08T13:49:30.577721+00:00",
        "meta_object_name": "STARLINK-35391",
        "meta_object_id": "2025-270AE",
        "meta_epoch": "2025-12-08T06:00:02.999808",
        "meta_mean_motion": 15.61396875,
        "meta_eccentricity": 0.00012928,
        "meta_inclination": 42.9991,
        "meta_ra_of_asc_node": 218.9766,
        "meta_arg_of_pericenter": 274.5493,
        "meta_mean_anomaly": 226.6082,
        "meta_ephemeris_type": 0,
        "meta_classification_type": "U",
        "meta_norad_cat_id": 66616,
        "meta_element_set_no": 999,
        "meta_rev_at_epoch": 378,
        "meta_bstar": -0.02593138,
        "meta_mean_motion_dot": -0.01996928,
        "meta_mean_motion_ddot": 0,
        "tle_line1": "1 66616U 25270AE  25342.25003472 -.01996928  00000+0 -25931-1 0  9996",
        "tle_line2": "2 66616  42.9991 218.9766 0001292 274.5493 226.6082 15.61396875  3783"
      },
      "geometry": {
        "type": "Point",
        "coordinates": [
          33.465076870845365,
          3.325373611932271
        ]
      }
    },
    {
      "type": "Feature",
      "properties": {
        "norad_id": 66617,
        "name": "STARLINK-35940",
        "group": "last-30-days",
        "lat": 49.792143102774304,
        "lon": -35.06192640839618,
        "alt_km": 357.2864482456898,
        "timestamp": "2025-12-08T13:49:30.577732+00:00",
        "meta_object_name": "STARLINK-35940",
        "meta_object_id": "2025-271A",
        "meta_epoch": "2025-12-08T06:00:02.999808",
        "meta_mean_motion": 15.69406827,
        "meta_eccentricity": 0.00010053,
        "meta_inclination": 53.1596,
        "meta_ra_of_asc_node": 209.0358,
        "meta_arg_of_pericenter": 64.4394,
        "meta_mean_anomaly": 0.7124,
        "meta_ephemeris_type": 0,
        "meta_classification_type": "U",
        "meta_norad_cat_id": 66617,
        "meta_element_set_no": 999,
        "meta_rev_at_epoch": 352,
        "meta_bstar": -0.018641993,
        "meta_mean_motion_dot": -0.01970418,
        "meta_mean_motion_ddot": 0,
        "tle_line1": "1 66617U 25271A   25342.25003472 -.01970418  00000+0 -18642-1 0  9995",
        "tle_line2": "2 66617  53.1596 209.0358 0001005  64.4394   0.7124 15.69406827  3522"
      },
      "geometry": {
        "type": "Point",
        "coordinates": [
          -35.06192640839618,
          49.792143102774304
        ]
      }
    },
    {
      "type": "Feature",
      "properties": {
        "norad_id": 66618,
        "name": "STARLINK-35970",
        "group": "last-30-days",
        "lat": 15.303419265737777,
        "lon": 15.479366277076954,
        "alt_km": 363.13299209518937,
        "timestamp": "2025-12-08T13:49:30.577745+00:00",
        "meta_object_name": "STARLINK-35970",
        "meta_object_id": "2025-271B",
        "meta_epoch": "2025-12-08T06:00:02.999808",
        "meta_mean_motion": 15.69407221,
        "meta_eccentricity": 9.569e-05,
        "meta_inclination": 53.159,
        "meta_ra_of_asc_node": 208.9233,
        "meta_arg_of_pericenter": 87.0445,
        "meta_mean_anomaly": 31.4272,
        "meta_ephemeris_type": 0,
        "meta_classification_type": "U",
        "meta_norad_cat_id": 66618,
        "meta_element_set_no": 999,
        "meta_rev_at_epoch": 352,
        "meta_bstar": -0.018619115,
        "meta_mean_motion_dot": -0.01968278,
        "meta_mean_motion_ddot": 0,
        "tle_line1": "1 66618U 25271B   25342.25003472 -.01968278  00000+0 -18619-1 0  9991",
        "tle_line2": "2 66618  53.1590 208.9233 0000956  87.0445  31.4272 15.69407221  3523"
      },
      "geometry": {
        "type": "Point",
        "coordinates": [
          15.479366277076954,
          15.303419265737777
        ]
      }
    },
    {
      "type": "Feature",
      "properties": {
        "norad_id": 66619,
        "name": "STARLINK-35951",
        "group": "last-30-days",
        "lat": 46.46790947797494,
        "lon": -24.69590584889492,
        "alt_km": 357.75635453610084,
        "timestamp": "2025-12-08T13:49:30.577755+00:00",
        "meta_object_name": "STARLINK-35951",
        "meta_object_id": "2025-271C",
        "meta_epoch": "2025-12-08T06:00:02.999808",
        "meta_mean_motion": 15.69408941,
        "meta_eccentricity": 9.109e-05,
        "meta_inclination": 53.1593,
        "meta_ra_of_asc_node": 209.0186,
        "meta_arg_of_pericenter": 87.1111,
        "meta_mean_anomaly": 345.7056,
        "meta_ephemeris_type": 0,
        "meta_classification_type": "U",
        "meta_norad_cat_id": 66619,
        "meta_element_set_no": 999,
        "meta_rev_at_epoch": 352,
        "meta_bstar": -0.018646544,
        "meta_mean_motion_dot": -0.01970926,
        "meta_mean_motion_ddot": 0,
        "tle_line1": "1 66619U 25271C   25342.25003472 -.01970926  00000+0 -18647-1 0  9996",
        "tle_line2": "2 66619  53.1593 209.0186 0000910  87.1111 345.7056 15.69408941  3528"
      },
      "geometry": {
        "type": "Point",
        "coordinates": [
          -24.69590584889492,
          46.46790947797494
        ]
      }
    },
    {
      "type": "Feature",
      "properties": {
        "norad_id": 66620,
        "name": "STARLINK-35936",
        "group": "last-30-days",
        "lat": 49.051639963285155,
        "lon": -32.34903337095948,
        "alt_km": 357.465031704206,
        "timestamp": "2025-12-08T13:49:30.577769+00:00",
        "meta_object_name": "STARLINK-35936",
        "meta_object_id": "2025-271D",
        "meta_epoch": "2025-12-08T06:00:02.999808",
        "meta_mean_motion": 15.69408039,
        "meta_eccentricity": 7.752e-05,
        "meta_inclination": 53.1593,
        "meta_ra_of_asc_node": 209.0315,
        "meta_arg_of_pericenter": 81.2096,
        "meta_mean_anomaly": 345.8554,
        "meta_ephemeris_type": 0,
        "meta_classification_type": "U",
        "meta_norad_cat_id": 66620,
        "meta_element_set_no": 999,
        "meta_rev_at_epoch": 352,
        "meta_bstar": -0.018622253,
        "meta_mean_motion_dot": -0.01968497,
        "meta_mean_motion_ddot": 0,
        "tle_line1": "1 66620U 25271D   25342.25003472 -.01968497  00000+0 -18622-1 0  9991",
        "tle_line2": "2 66620  53.1593 209.0315 0000775  81.2096 345.8554 15.69408039  3522"
      },
      "geometry": {
        "type": "Point",
        "coordinates": [
          -32.34903337095948,
          49.051639963285155
        ]
      }
    }
  ]
}